GLOBALSTAR M057         
1 25943U 99058A   25273.30437807 -.00000084  00000+0  82927-4 0  9999
2 25943  51.9999  49.8780 0002222 213.1892 146.8818 12.24827185179819
GLOBALSTAR M059         
1 25944U 99058B   25273.28382874 -.00000048  00000+0  47864-3 0  9990
2 25944  52.0012 282.8538 0000364 128.6068 244.9200 11.99988536586667
GLOBALSTAR M056         
1 25945U 99058C   25273.47831094 -.00000122  00000+0 -40711-3 0  9993
2 25945  51.9955 281.5870 0001118  35.9983 120.4536 12.04779238175311
GLOBALSTAR M031         
1 25946U 99058D   25273.48266815 -.00000028  00000+0  63900-3 0  9997
2 25946  51.9950 167.5967 0002080  44.9645 125.0120 12.16040152177356
GLOBALSTAR M039         
1 25961U 99062A   25273.47434814 -.00000073  00000+0  16974-3 0  9993
2 25961  51.9853 308.0327 0002484 214.6840 145.3865 12.62332950193516
GLOBALSTAR M034         
1 25962U 99062B   25273.53352809 -.00000024  00000+0  90918-3 0  9990
2 25962  51.9854  97.5449 0013324 238.2745 136.2419 11.79448828150824
GLOBALSTAR M029         
1 25963U 99062C   25273.50324196 -.00000078  00000+0  10479-3 0  9999
2 25963  51.9793 170.2039 0002581 343.7250 187.3420 11.99901491181765
GLOBALSTAR M061         
1 25964U 99062D   25273.47034255 -.00000079  00000+0  16040-4 0  9992
2 25964  51.9789 283.1459 0005903 161.6169 351.8631 11.76777035133576
